OBJECT_NAME,OBJECT_ID,EPOCH,MEAN_MOTION,ECCENTRICITY,INCLINATION,RA_OF_ASC_NODE,ARG_OF_PERICENTER,MEAN_ANOMALY,EPHEMERIS_TYPE,CLASSIFICATION_TYPE,NORAD_CAT_ID,ELEMENT_SET_NO,REV_AT_EPOCH,BSTAR,MEAN_MOTION_DOT,MEAN_MOTION_DDOT
STARLINK-33792,2025-071P,2026-06-08T00:37:22.481760,15.30192923,.00009909,53.1592,80.1165,83.6808,276.4306,0,U,63506,999,6655,.11052607E-2,.32512E-3,0
STARLINK-33843,2025-071Q,2026-06-08T01:04:43.348224,15.30193684,.00014186,53.1619,80.1988,99.0996,261.0165,0,U,63507,999,6658,.98348872E-3,.28876E-3,0
STARLINK-33809,2025-071R,2026-06-08T02:22:04.764864,15.30164637,.00013038,53.1597,79.8282,86.7218,273.3932,0,U,63508,999,6655,.1113516E-2,.32729E-3,0
STARLINK-33678,2025-071S,2026-06-08T01:43:18.925248,15.31702828,.00009493,53.1576,79.6590,86.6788,273.4322,0,U,63509,999,6634,.1084905E-2,.33455E-3,0
STARLINK-33764,2025-071T,2026-06-08T00:19:17.569056,15.30194509,.00011643,53.1573,80.7107,99.2158,260.8975,0,U,63510,999,6657,.78571732E-3,.2298E-3,0
STARLINK-33804,2025-071U,2026-06-08T02:30:22.099680,15.31699730,.00007118,53.1600,79.8611,82.5429,277.5653,0,U,63511,999,6624,.52659302E-3,.16011E-3,0
STARLINK-33751,2025-071V,2026-06-08T02:16:55.614432,15.31705579,.00012309,53.1592,79.8049,101.9519,258.1620,0,U,63512,999,6659,.12216711E-2,.37743E-3,0
STARLINK-33750,2025-071W,2026-06-08T00:29:31.458336,15.31692159,.00015426,53.1599,80.0491,102.3717,257.7457,0,U,63513,999,6658,.5718641E-3,.17418E-3,0
STARLINK-33786,2025-071X,2026-06-07T22:34:35.979744,15.30195530,.00011655,53.1584,80.9654,86.1699,273.9435,0,U,63514,999,6620,.72414721E-3,.21146E-3,0
STARLINK-33796,2025-071Y,2026-06-08T02:14:26.027520,15.30275802,.00016455,53.1587,79.7877,136.6547,223.4584,0,U,63515,999,6661,.36187443E-2,.10865E-2,0
STARLINK-33785,2025-071Z,2026-06-08T02:23:38.677344,15.31706137,.00010842,53.1603,79.8274,104.1541,255.9581,0,U,63516,999,6659,.11737607E-2,.36242E-3,0
STARLINK-33803,2025-071AA,2026-06-08T02:25:05.678688,15.30186022,.00020017,53.1598,79.8277,81.1492,278.9735,0,U,63517,999,6661,.84085353E-3,.24617E-3,0
STARLINK-33807,2025-071AB,2026-06-08T01:15:07.900992,15.35395947,.00014869,53.1596,78.8234,114.3161,245.7997,0,U,63518,999,6662,.68710955E-3,.23659E-3,0
STARLINK-33787,2025-071AC,2026-06-08T01:22:11.775072,15.30194887,.0001651,53.1607,82.4031,94.4450,265.6740,0,U,63519,999,6620,.10558109E-2,.31037E-3,0
STARLINK-11669 [DTC],2025-075A,2026-06-08T04:04:25.342464,15.70927298,.0002714,43.0017,327.9851,270.1501,89.9055,0,U,63548,999,6748,.12027928E-2,.157432E-2,0
STARLINK-11665 [DTC],2025-075B,2026-06-07T18:01:43.961664,15.70872063,.00030543,43.0027,330.8831,259.6167,100.4357,0,U,63549,999,6741,.59113789E-3,.76215E-3,0
STARLINK-11667 [DTC],2025-075C,2026-06-07T18:32:19.197024,15.70914782,.00019047,43.0026,331.0512,251.9864,108.0796,0,U,63550,999,6741,.12420171E-2,.162586E-2,0
STARLINK-11695 [DTC],2025-075D,2026-06-08T04:05:44.343168,15.71029576,.0002708,42.9994,327.9903,283.5175,76.5391,0,U,63551,999,6748,.1135393E-2,.149076E-2,0
STARLINK-11685 [DTC],2025-075E,2026-06-08T04:19:43.726944,15.71173601,.00021905,42.9999,328.0697,316.8880,43.1816,0,U,63552,999,6748,.19605917E-2,.262907E-2,0
STARLINK-11697 [DTC],2025-075F,2026-06-08T04:27:21.694464,15.70879473,.00018735,43.0008,328.1131,268.9177,91.1476,0,U,63553,999,6748,.17167171E-2,.226308E-2,0
STARLINK-11680 [DTC],2025-075G,2026-06-07T18:24:40.584960,15.70927524,.00015021,42.9990,331.0087,247.7720,112.2988,0,U,63554,999,6741,.14071384E-2,.184857E-2,0
STARLINK-11626 [DTC],2025-075J,2026-06-08T03:56:57.923520,15.70890682,.0002332,42.9987,328.8350,275.7624,84.2977,0,U,63556,999,6747,.11340413E-2,.148005E-2,0
STARLINK-11668 [DTC],2025-075K,2026-06-07T18:39:57.804768,15.70873649,.00009614,42.9990,331.0908,258.2379,101.8381,0,U,63557,999,6741,.12085969E-2,.157832E-2,0
STARLINK-11657 [DTC],2025-075L,2026-06-07T18:17:01.719744,15.70904273,.00026003,42.9997,330.9634,254.2037,105.8544,0,U,63558,999,6741,.12957318E-2,.169718E-2,0
STARLINK-11606 [DTC],2025-075M,2026-06-08T04:12:04.360608,15.70871957,.00015743,42.9998,328.0233,283.7772,76.2920,0,U,63559,999,6748,.17002176E-2,.223993E-2,0
STARLINK-11592 [DTC],2025-075N,2026-06-07T22:28:46.000992,15.70900057,.00022922,43.0003,329.6842,262.6431,97.4176,0,U,63560,999,6744,.14229134E-2,.186768E-2,0
STARLINK-32953,2025-075P,2026-06-08T04:09:30.330144,15.27595763,.00003167,43.0044,119.8074,263.7243,96.3572,0,U,63561,999,6576,.87880527E-3,.24011E-3,0
STARLINK-32951,2025-075Q,2026-06-08T04:03:57.030912,15.27589673,.00018754,43.0043,119.7521,279.0762,80.9877,0,U,63562,999,6577,.80787715E-3,.22042E-3,0
STARLINK-32958,2025-075R,2026-06-08T03:49:10.809696,15.27589691,.0002301,43.0018,119.6978,272.7282,87.3306,0,U,63563,999,6576,.65276691E-3,.1775E-3,0
STARLINK-32928,2025-075S,2026-06-07T14:51:49.572864,15.27581388,.00035876,43.0048,122.5315,267.3878,92.6563,0,U,63564,999,6569,.32240609E-3,.8621E-4,0
