STARLINK-33792          
1 63506U 25071P   26159.02595465  .00032512  00000+0  11053-2 0  9998
2 63506  53.1592  80.1165 0000990  83.6808 276.4306 15.30192923 66554
STARLINK-33843          
1 63507U 25071Q   26159.04494616  .00028876  00000+0  98349-3 0  9999
2 63507  53.1619  80.1988 0001418  99.0996 261.0165 15.30193684 66584
STARLINK-33809          
1 63508U 25071R   26159.09866626  .00032729  00000+0  11135-2 0  9998
2 63508  53.1597  79.8282 0001303  86.7218 273.3932 15.30164637 66556
STARLINK-33678          
1 63509U 25071S   26159.07174682  .00033455  00000+0  10849-2 0  9999
2 63509  53.1576  79.6590 0000949  86.6788 273.4322 15.31702828 66342
STARLINK-33764          
1 63510U 25071T   26159.01339779  .00022980  00000+0  78572-3 0  9994
2 63510  53.1573  80.7107 0001164  99.2158 260.8975 15.30194509 66578
STARLINK-33804          
1 63511U 25071U   26159.10442245  .00016011  00000+0  52659-3 0  9994
2 63511  53.1600  79.8611 0000711  82.5429 277.5653 15.31699730 66241
STARLINK-33751          
1 63512U 25071V   26159.09508813  .00037743  00000+0  12217-2 0  9997
2 63512  53.1592  79.8049 0001230 101.9519 258.1620 15.31705579 66596
STARLINK-33750          
1 63513U 25071W   26159.02050299  .00017418  00000+0  57186-3 0  9993
2 63513  53.1599  80.0491 0001542 102.3717 257.7457 15.31692159 66581
STARLINK-33786          
1 63514U 25071X   26158.94069421  .00021146  00000+0  72415-3 0  9996
2 63514  53.1584  80.9654 0001165  86.1699 273.9435 15.30195530 66200
STARLINK-33796          
1 63515U 25071Y   26159.09335680  .00108650  00000+0  36187-2 0  9998
2 63515  53.1587  79.7877 0001645 136.6547 223.4584 15.30275802 66614
STARLINK-33785          
1 63516U 25071Z   26159.09975321  .00036242  00000+0  11738-2 0  9993
2 63516  53.1603  79.8274 0001084 104.1541 255.9581 15.31706137 66592
STARLINK-33803          
1 63517U 25071AA  26159.10076017  .00024617  00000+0  84085-3 0  9999
2 63517  53.1598  79.8277 0002001  81.1492 278.9735 15.30186022 66611
STARLINK-33807          
1 63518U 25071AB  26159.05217478  .00023659  00000+0  68711-3 0  9995
2 63518  53.1596  78.8234 0001486 114.3161 245.7997 15.35395947 66626
STARLINK-33787          
1 63519U 25071AC  26159.05708073  .00031037  00000+0  10558-2 0  9996
2 63519  53.1607  82.4031 0001651  94.4450 265.6740 15.30194887 66205
STARLINK-11669 [DTC]    
1 63548U 25075A   26159.16973776  .00157432  00000+0  12028-2 0  9990
2 63548  43.0017 327.9851 0002714 270.1501  89.9055 15.70927298 67489
STARLINK-11665 [DTC]    
1 63549U 25075B   26158.75120326  .00076215  00000+0  59114-3 0  9997
2 63549  43.0027 330.8831 0003054 259.6167 100.4357 15.70872063 67416
STARLINK-11667 [DTC]    
1 63550U 25075C   26158.77244441  .00162586  00000+0  12420-2 0  9991
2 63550  43.0026 331.0512 0001904 251.9864 108.0796 15.70914782 67413
STARLINK-11695 [DTC]    
1 63551U 25075D   26159.17065212  .00149076  00000+0  11354-2 0  9998
2 63551  42.9994 327.9903 0002708 283.5175  76.5391 15.71029576 67489
STARLINK-11685 [DTC]    
1 63552U 25075E   26159.18036721  .00262907  00000+0  19606-2 0  9990
2 63552  42.9999 328.0697 0002190 316.8880  43.1816 15.71173601 67486
STARLINK-11697 [DTC]    
1 63553U 25075F   26159.18566776  .00226308  00000+0  17167-2 0  9994
2 63553  43.0008 328.1131 0001873 268.9177  91.1476 15.70879473 67481
STARLINK-11680 [DTC]    
1 63554U 25075G   26158.76713640  .00184857  00000+0  14071-2 0  9995
2 63554  42.9990 331.0087 0001502 247.7720 112.2988 15.70927524 67418
STARLINK-11626 [DTC]    
1 63556U 25075J   26159.16455930  .00148005  00000+0  11340-2 0  9998
2 63556  42.9987 328.8350 0002332 275.7624  84.2977 15.70890682 67475
STARLINK-11668 [DTC]    
1 63557U 25075K   26158.77775237  .00157832  00000+0  12086-2 0  9996
2 63557  42.9990 331.0908 0000961 258.2379 101.8381 15.70873649 67417
STARLINK-11657 [DTC]    
1 63558U 25075L   26158.76182546  .00169718  00000+0  12957-2 0  9994
2 63558  42.9997 330.9634 0002600 254.2037 105.8544 15.70904273 67411
STARLINK-11606 [DTC]    
1 63559U 25075M   26159.17505047  .00223993  00000+0  17002-2 0  9998
2 63559  42.9998 328.0233 0001574 283.7772  76.2920 15.70871957 67486
STARLINK-11592 [DTC]    
1 63560U 25075N   26158.93664353  .00186768  00000+0  14229-2 0  9995
2 63560  43.0003 329.6842 0002292 262.6431  97.4176 15.70900057 67444
STARLINK-32953          
1 63561U 25075P   26159.17326771  .00024011  00000+0  87881-3 0  9999
2 63561  43.0044 119.8074 0000316 263.7243  96.3572 15.27595763 65761
STARLINK-32951          
1 63562U 25075Q   26159.16941008  .00022042  00000+0  80788-3 0  9996
2 63562  43.0043 119.7521 0001875 279.0762  80.9877 15.27589673 65775
STARLINK-32958          
1 63563U 25075R   26159.15915289  .00017750  00000+0  65277-3 0  9994
2 63563  43.0018 119.6978 0002301 272.7282  87.3306 15.27589691 65762
STARLINK-32928          
1 63564U 25075S   26158.61932376  .00008621  00000+0  32241-3 0  9993
2 63564  43.0048 122.5315 0003587 267.3878  92.6563 15.27581388 65693
